NORAD_CAT_ID,OBJECT_NAME,OBJECT_TYPE,EPOCH,MEAN_MOTION,ECCENTRICITY,INCLINATION,RA_OF_ASC_NODE,ARG_OF_PERICENTER,MEAN_ANOMALY,BSTAR,MEAN_MOTION_DOT,MEAN_MOTION_DDOT,TLE_LINE0,TLE_LINE1,TLE_LINE2,SEMIMAJOR_AXIS,PERIOD,APOGEE,PERIGEE,DECAYED
49137.0,STARLINK-3055,PAYLOAD,2021-09-20 14:00:01,15.87528805,0.0040073,70.0004,109.0025,159.8064,84.9092,-0.0043512,-0.01232236,0.00042563,0 STARLINK-3055,1 49137U 21082H   21263.58334491 -.01232236  42563-3 -43512-2 0  9999,2 49137  70.0004 109.0025 0040073 159.8064  84.9092 15.87528805  1115,6687.351,90.707,336.014,282.4170000000001,0.0
49137.0,STARLINK-3055,PAYLOAD,2021-09-20 20:00:01,15.86917956,0.0037126999999999,70.0001,108.2815,159.9836,72.7948,-0.0044803,-0.01218699,0.00041465,0 STARLINK-3055,1 49137U 21082H   21263.83334491 -.01218699  41465-3 -44803-2 0  9998,2 49137  70.0001 108.2815 0037127 159.9836  72.7948 15.86917956  1151,6689.066999999999,90.742,335.766,286.097,0.0
49137.0,STARLINK-3055,PAYLOAD,2021-09-20 22:00:00,15.86741883,0.0036204,70.0001,108.0413,160.5443,188.1244,-0.0047258,-0.01270133,0.00044682,0 STARLINK-3055,1 49137U 21082H   21263.91667824 -.01270133  44682-3 -47258-2 0  9998,2 49137  70.0001 108.0413 0036204 160.5443 188.1244 15.86741883  1380,6689.562,90.752,335.645,287.208,0.0
49137.0,STARLINK-3055,PAYLOAD,2021-09-21 04:00:00,15.86139562,0.0034389,69.9998,107.3209,161.1087,174.8958,-0.0049022,-0.01271908,0.00044548,0 STARLINK-3055,1 49137U 21082H   21264.16667824 -.01271908  44548-3 -49022-2 0  9999,2 49137  69.9998 107.3209 0034389 161.1087 174.8958 15.86139562  1200,6691.255,90.786,336.13,290.1090000000001,0.0
49137.0,STARLINK-3055,PAYLOAD,2021-09-21 12:00:00,15.85312047,0.0030592,70.0,106.3616,162.1372,276.146,-0.0049681,-0.01225661,0.00041286,0 STARLINK-3055,1 49137U 21082H   21264.50001157 -.01225661  41286-3 -49681-2 0  9990,2 49137  70.0000 106.3616 0030592 162.1372 276.1460 15.85312047  1257,6693.583000000001,90.834,335.925,294.971,0.0
49137.0,STARLINK-3055,PAYLOAD,2021-09-21 14:00:01,15.85102226,0.0029937,70.0003,106.1219,162.2671,31.5014,-0.0049401,-0.01204611,0.00039908,0 STARLINK-3055,1 49137U 21082H   21264.58335648 -.01204611  39908-3 -49401-2 0  9993,2 49137  70.0003 106.1219 0029937 162.2671  31.5014 15.85102226  1491,6694.174,90.846,336.079,295.999,0.0
49137.0,STARLINK-3055,PAYLOAD,2021-09-21 22:00:00,15.8432419,0.0026627,70.0001,105.1641,163.9549,130.8033,-0.0054159,-0.0126191,0.0004318,0 STARLINK-3055,1 49137U 21082H   21264.91667824 -.01261910  43180-3 -54159-2 0  9992,2 49137  70.0001 105.1641 0026627 163.9549 130.8033 15.84324190  1323,6696.365,90.89,336.061,300.4,0.0
49137.0,STARLINK-3055,PAYLOAD,2021-09-22 06:00:02,15.83516349,0.0023658,69.9998,104.2072,166.6444,228.2809,-0.0056352,-0.01120828,0.0,0 STARLINK-3055,1 49137U 21082H   21265.25002315 -.01120828  00000-0 -56352-2 0  9998,2 49137  69.9998 104.2072 0023658 166.6444 228.2809 15.83516349  1374,6698.643,90.937,336.355,304.66,0.0
49137.0,STARLINK-3055,PAYLOAD,2021-09-22 14:00:01,15.82687078,0.0020181,70.0002,103.2516,168.6191,325.383,-0.0056412,-0.01075708,0.0,0 STARLINK-3055,1 49137U 21082H   21265.58334491 -.01075708  00000-0 -56412-2 0  9990,2 49137  70.0002 103.2516 0020181 168.6191 325.3830 15.82687078  1655,6700.982,90.985,336.371,309.324,0.0
49137.0,STARLINK-3055,PAYLOAD,2021-09-22 20:00:01,15.82086583,0.0017862,70.0,102.5357,171.9101,305.8094,-0.0058604999999999,-0.01080781,0.0,0 STARLINK-3055,1 49137U 21082H   21265.83334491 -.01080781  00000-0 -58605-2 0  9991,2 49137  70.0000 102.5357 0017862 171.9101 305.8094 15.82086583  1691,6702.678000000001,91.019,336.515,312.57,0.0
49137.0,STARLINK-3055,PAYLOAD,2021-09-23 06:00:02,15.8111145,0.0015148,69.9999,101.3435,178.7709,150.6614,-0.0064768,-0.01129349,0.0,0 STARLINK-3055,1 49137U 21082H   21266.25002315 -.01129349  00000-0 -64768-2 0  9996,2 49137  69.9999 101.3435 0015148 178.7709 150.6614 15.81111450  1531,6705.433000000001,91.075,337.456,317.141,0.0
49137.0,STARLINK-3055,PAYLOAD,2021-09-23 14:00:01,15.80290454,0.001174,70.0003,100.3915,188.2271,237.3852,-0.0065622,-0.01099835,0.0,0 STARLINK-3055,1 49137U 21082H   21266.58334491 -.01099835  00000-0 -65622-2 0  9991,2 49137  70.0003 100.3915 0011740 188.2271 237.3852 15.80290454  1815,6707.755999999999,91.122,337.496,321.746,0.0
49137.0,STARLINK-3055,PAYLOAD,2021-09-23 20:00:01,15.79694168,0.0010263,70.0001,99.6782,197.3512,209.8716,-0.0068343999999999,-0.01130717,0.0,0 STARLINK-3055,1 49137U 21082H   21266.83335648 -.01130717  00000-0 -68344-2 0  9993,2 49137  70.0001  99.6782 0010263 197.3512 209.8716 15.79694168  1623,6709.443,91.157,338.194,324.423,0.0
49137.0,STARLINK-3055,PAYLOAD,2021-09-23 22:00:01,15.79469857,0.0009681,70.0001,99.4404,200.4252,320.5338,-0.0066327,-0.01071405,0.0,0 STARLINK-3055,1 49137U 21082H   21266.91668981 -.01071405  00000-0 -66327-2 0  9998,2 49137  70.0001  99.4404 0009681 200.4252 320.5338 15.79469857  1863,6710.079000000002,91.17,338.44,325.448,0.0
49137.0,STARLINK-3055,PAYLOAD,2021-09-24 14:00:01,15.77882175,0.0008362,70.0002,97.5416,227.4466,121.0959,-0.0073922,-0.01124774,0.0,0 STARLINK-3055,1 49137U 21082H   21267.58334491 -.01124774  00000-0 -73922-2 0  9995,2 49137  70.0002  97.5416 0008362 227.4466 121.0959 15.77882175  1972,6714.579000000002,91.262,342.059,330.829,0.0
49137.0,STARLINK-3055,PAYLOAD,2021-09-24 22:00:00,15.77072192,0.0008067,70.0,96.5937,230.6188,210.3069,-0.0075978,-0.01115532,0.0,0 STARLINK-3055,1 49137U 21082H   21267.91667824 -.01115532  00000-0 -75978-2 0  9996,2 49137  70.0000  96.5937 0008067 230.6188 210.3069 15.77072192  1790,6716.878000000002,91.308,344.161,333.324,0.0
49137.0,STARLINK-3055,PAYLOAD,2021-09-25 06:00:02,15.76269148,0.0008609,69.9998,95.647,229.1178,303.2895,-0.0078913,-0.0111819,0.0,0 STARLINK-3055,1 49137U 21082H   21268.25002315 -.01118190  00000-0 -78913-2 0  9997,2 49137  69.9998  95.6470 0008609 229.1178 303.2895 15.76269148  2078,6719.159000000002,91.355,346.809,335.24,0.0
49137.0,STARLINK-3055,PAYLOAD,2021-09-25 14:00:01,15.75464954,0.0007962999999999,70.0003,94.7017,228.53,34.2627,-0.0081698,-0.01116757,0.0,0 STARLINK-3055,1 49137U 21082H   21268.58334491 -.01116757  00000-0 -81698-2 0  9997,2 49137  70.0003  94.7017 0007963 228.5300  34.2627 15.75464954  1903,6721.445,91.402,348.663,337.958,0.0
49137.0,STARLINK-3055,PAYLOAD,2021-09-25 22:00:00,15.74656472,0.0004306,70.0001,93.7574,271.1333,81.1475,-0.0084246,-0.01109317,0.0,0 STARLINK-3055,1 49137U 21082H   21268.91667824 -.01109317  00000-0 -84246-2 0  9999,2 49137  70.0001  93.7574 0004306 271.1333  81.1475 15.74656472  1950,6723.746,91.449,348.506,342.716,0.0
49137.0,STARLINK-3055,PAYLOAD,2021-09-26 00:00:00,15.74458209,0.000394,69.9998,93.5214,273.6729,190.8279,-0.0085377,-0.01113774,0.0,0 STARLINK-3055,1 49137U 21082H   21269.00001157 -.01113774  00000-0 -85377-2 0  9999,2 49137  69.9998  93.5214 0003940 273.6729 190.8279 15.74458209  2195,6724.31,91.46,348.825,343.526,0.0
49137.0,STARLINK-3055,PAYLOAD,2021-09-26 14:00:01,15.73048653,0.0003568,70.0002,91.8721,283.7873,244.572,-0.0090439,-0.01110185,0.0,0 STARLINK-3055,1 49137U 21082H   21269.58334491 -.01110185  00000-0 -90439-2 0  9990,2 49137  70.0002  91.8721 0003568 283.7873 244.5720 15.73048653  2056,6728.3269999999975,91.542,352.592,347.791,0.0
49137.0,STARLINK-3055,PAYLOAD,2021-09-26 22:00:01,15.72243965,0.0003446,70.0,90.9311,276.7987,338.2184,-0.0093601,-0.01110025,0.0,0 STARLINK-3055,1 49137U 21082H   21269.91668981 -.01110025  00000-0 -93601-2 0  9998,2 49137  70.0000  90.9311 0003446 276.7987 338.2184 15.72243965  2341,6730.621999999999,91.589,354.807,350.168,0.0
49137.0,STARLINK-3055,PAYLOAD,2021-09-27 06:00:02,15.71440135,0.000361,69.9999,89.9912,266.4497,74.195,-0.0096991,-0.01111515,0.0,0 STARLINK-3055,1 49137U 21082H   21270.25002315 -.01111515  00000-0 -96991-2 0  9990,2 49137  69.9999  89.9912 0003610 266.4497  74.1950 15.71440135  2169,6732.917,91.636,357.213,352.352,0.0
49137.0,STARLINK-3055,PAYLOAD,2021-09-27 14:00:01,15.7057498,0.0003703,70.0002,89.0526,276.36,148.8941,-0.0086827,-0.00973285,0.0,0 STARLINK-3055,1 49137U 21082H   21270.58334491 -.00973285  00000-0 -86827-2 0  9995,2 49137  70.0002  89.0526 0003703 276.3600 148.8941 15.70574980  2443,6735.39,91.686,359.749,354.761,0.0
49137.0,STARLINK-3055,PAYLOAD,2021-09-27 22:00:01,15.69748519,0.0003523999999999,70.0001,88.1149,279.6544,229.3577,-2.3425e-05,-3.008e-05,0.0,0 STARLINK-3055,1 49137U 21082H   21270.91668981 -.00003008  00000-0 -23425-4 0  9990,2 49137  70.0001  88.1149 0003524 279.6544 229.3577 15.69748519  2266,6737.754,91.734,361.99300000000005,357.244,0.0
49137.0,STARLINK-3055,PAYLOAD,2021-09-28 14:00:01,15.69789298,0.000379,70.0041,86.2485,271.2943,43.8056,-0.00011246,-0.00013639,0.0,0 STARLINK-3055,1 49137U 21082H   21271.58334491 -.00013639  00000-0 -11246-3 0  9998,2 49137  70.0041  86.2485 0003790 271.2943  43.8056 15.69789298  2370,6737.637,91.732,362.055,356.9480000000001,0.0
49137.0,STARLINK-3055,PAYLOAD,2021-09-29 06:00:00,15.69811119,0.0003696,70.0015,84.3736,273.1909,208.2545,-0.00041251,-0.00049297,0.0,0 STARLINK-3055,1 49137U 21082H   21272.25001157 -.00049297  00000-0 -41251-3 0  9991,2 49137  70.0015  84.3736 0003696 273.1909 208.2545 15.69811119  2476,6737.574000000001,91.731,361.93,356.949,0.0
49137.0,STARLINK-3055,PAYLOAD,2021-09-29 14:00:01,15.69756198,0.0003694,70.0011,83.4341,271.4739,293.1583,0.00037943,0.00045343,0.0,0 STARLINK-3055,1 49137U 21082H   21272.58334491  .00045343  00000-0  37943-3 0  9996,2 49137  70.0011  83.4341 0003694 271.4739 293.1583 15.69756198  2766,6737.732,91.734,362.085,357.108,0.0
49137.0,STARLINK-3055,PAYLOAD,2021-09-30 06:00:02,15.69700705,0.0003741,70.0017,81.5628,272.5756,98.3795,0.00049571,0.00059268,0.0,0 STARLINK-3055,1 49137U 21082H   21273.25002315  .00059268  00000-0  49571-3 0  9999,2 49137  70.0017  81.5628 0003741 272.5756  98.3795 15.69700705  2632,6737.89,91.737,362.276,357.235,0.0
